
0 LANDSAT 1 (ERTS 1)
1  6126U 72058A   22053.81140920  .00000000  00000-0  32847-4 0  9992
2  6126  99.3115  33.2021 0007297 219.0755 140.9880 13.97581352528100

0 LANDSAT 2
1 07615U 75004A   22053.52084745  .00000169  00000-0  15220-3 0  9991
2 07615  98.8145  34.0883 0008286 337.9835  22.0971 13.96707158399159

0 LANDSAT 3
1 10702U 78026A   22053.53963961 -.00000051  00000-0 -63124-5 0  9996
2 10702  98.8403  29.3133 0014940 157.7568 309.4204 13.96713120241509

0 LANDSAT 4
1 13367U 82072A   22053.56159104  .00003314  00000-0  16318-3 0  9995
2 13367  98.2347  25.8628 0013788 124.3374  11.0213 15.18718743569785

0 LANDSAT 5
1 14780U 84021A   22053.51020543  .00000594  00000-0  59950-4 0  9997
2 14780  98.2069 246.4936 0088165 305.5532  53.7490 14.92602507555505


0 LANDSAT 7
1 25682U 99020A   22053.58929806  .00000031  00000-0  16407-4 0  9998
2 25682  97.9963 106.1112 0001877  90.5533 269.5894 14.57212361215821

0 LANDSAT 8
1 39084U 13008A   22053.81501125  .00000154  00000-0  44184-4 0  9996
2 39084  98.1956 125.7873 0001410  96.9685 263.1673 14.57112407480301
